0 METEOR 2-5 DEB
1 28596U 79095G   13293.39489571  .00005091  00000-0  19444-2 0  4617
2 28596 081.1970 326.0613 0012358 082.1428 279.4173 14.30593329481468
